[{"OBJECT_NAME":"STARLINK-1134","OBJECT_ID":"2020-006E","EPOCH":"2025-08-01T03:45:29.769984","MEAN_MOTION":15.20022348,"ECCENTRICITY":0.0002874,"INCLINATION":53.053,"RA_OF_ASC_NODE":185.9085,"ARG_OF_PERICENTER":242.6335,"MEAN_ANOMALY":117.4367,"EPHEMERIS_TYPE":0,"CLASSIFICATION_TYPE":"U","NORAD_CAT_ID":45048,"ELEMENT_SET_NO":999,"REV_AT_EPOCH":30371,"BSTAR":0.0021636,"MEAN_MOTION_DOT":0.00047205,"MEAN_MOTION_DDOT":0},{"OBJECT_NAME":"STARLINK-1156","OBJECT_ID":"2020-006L","EPOCH":"2025-07-31T15:57:10.277856","MEAN_MOTION":15.06398546,"ECCENTRICITY":0.0001187,"INCLINATION":53.0542,"RA_OF_ASC_NODE":198.8396,"ARG_OF_PERICENTER":75.7818,"MEAN_ANOMALY":284.3303,"EPHEMERIS_TYPE":0,"CLASSIFICATION_TYPE":"U","NORAD_CAT_ID":45054,"ELEMENT_SET_NO":999,"REV_AT_EPOCH":30348,"BSTAR":2.4797e-5,"MEAN_MOTION_DOT":8.8e-7,"MEAN_MOTION_DDOT":0},{"OBJECT_NAME":"STARLINK-1159","OBJECT_ID":"2020-006P","EPOCH":"2025-08-01T05:02:43.381248","MEAN_MOTION":15.06387812,"ECCENTRICITY":0.0001105,"INCLINATION":53.054,"RA_OF_ASC_NODE":196.3887,"ARG_OF_PERICENTER":78.1368,"MEAN_ANOMALY":281.9744,"EPHEMERIS_TYPE":0,"CLASSIFICATION_TYPE":"U","NORAD_CAT_ID":45057,"ELEMENT_SET_NO":999,"REV_AT_EPOCH":30357,"BSTAR":2.6471e-6,"MEAN_MOTION_DOT":-2.42e-6,"MEAN_MOTION_DDOT":0},{"OBJECT_NAME":"STARLINK-1166","OBJECT_ID":"2020-006S","EPOCH":"2025-08-01T05:18:38.695680","MEAN_MOTION":15.06389855,"ECCENTRICITY":0.0001278,"INCLINATION":53.0538,"RA_OF_ASC_NODE":196.3413,"ARG_OF_PERICENTER":86.2939,"MEAN_ANOMALY":273.8197,"EPHEMERIS_TYPE":0,"CLASSIFICATION_TYPE":"U","NORAD_CAT_ID":45060,"ELEMENT_SET_NO":999,"REV_AT_EPOCH":30357,"BSTAR":-2.4608e-5,"MEAN_MOTION_DOT":-6.48e-6,"MEAN_MOTION_DDOT":0},{"OBJECT_NAME":"STARLINK-1169","OBJECT_ID":"2020-006T","EPOCH":"2025-08-01T08:40:19.903008","MEAN_MOTION":15.06391309,"ECCENTRICITY":0.0001171,"INCLINATION":53.0538,"RA_OF_ASC_NODE":195.7131,"ARG_OF_PERICENTER":76.2503,"MEAN_ANOMALY":283.8616,"EPHEMERIS_TYPE":0,"CLASSIFICATION_TYPE":"U","NORAD_CAT_ID":45061,"ELEMENT_SET_NO":999,"REV_AT_EPOCH":30359,"BSTAR":-2.3013e-5,"MEAN_MOTION_DOT":-6.24e-6,"MEAN_MOTION_DDOT":0},{"OBJECT_NAME":"STARLINK-1171","OBJECT_ID":"2020-006U","EPOCH":"2025-08-01T05:08:01.931136","MEAN_MOTION":15.06388522,"ECCENTRICITY":0.0001205,"INCLINATION":53.0533,"RA_OF_ASC_NODE":196.3708,"ARG_OF_PERICENTER":84.1641,"MEAN_ANOMALY":275.9485,"EPHEMERIS_TYPE":0,"CLASSIFICATION_TYPE":"U","NORAD_CAT_ID":45062,"ELEMENT_SET_NO":999,"REV_AT_EPOCH":30357,"BSTAR":-2.0076e-5,"MEAN_MOTION_DOT":-5.8e-6,"MEAN_MOTION_DDOT":0},{"OBJECT_NAME":"STARLINK-1133","OBJECT_ID":"2020-006W","EPOCH":"2025-08-01T03:51:04.949280","MEAN_MOTION":15.06403011,"ECCENTRICITY":0.0001267,"INCLINATION":53.0539,"RA_OF_ASC_NODE":176.609,"ARG_OF_PERICENTER":91.3141,"MEAN_ANOMALY":268.7994,"EPHEMERIS_TYPE":0,"CLASSIFICATION_TYPE":"U","NORAD_CAT_ID":45064,"ELEMENT_SET_NO":999,"REV_AT_EPOCH":30385,"BSTAR":4.0896e-5,"MEAN_MOTION_DOT":3.28e-6,"MEAN_MOTION_DDOT":0},{"OBJECT_NAME":"STARLINK-1150","OBJECT_ID":"2020-006Z","EPOCH":"2025-08-01T06:00:02.000160","MEAN_MOTION":15.72280154,"ECCENTRICITY":0.0010064,"INCLINATION":53.0479,"RA_OF_ASC_NODE":149.925,"ARG_OF_PERICENTER":48.5238,"MEAN_ANOMALY":103.3622,"EPHEMERIS_TYPE":0,"CLASSIFICATION_TYPE":"U","NORAD_CAT_ID":45067,"ELEMENT_SET_NO":999,"REV_AT_EPOCH":30422,"BSTAR":0.0013626,"MEAN_MOTION_DOT":0.00187941,"MEAN_MOTION_DDOT":0},{"OBJECT_NAME":"STARLINK-1167","OBJECT_ID":"2020-006AD","EPOCH":"2025-08-01T04:28:12.778464","MEAN_MOTION":15.06396749,"ECCENTRICITY":0.0001282,"INCLINATION":53.0538,"RA_OF_ASC_NODE":176.4992,"ARG_OF_PERICENTER":87.4472,"MEAN_ANOMALY":272.6664,"EPHEMERIS_TYPE":0,"CLASSIFICATION_TYPE":"U","NORAD_CAT_ID":45071,"ELEMENT_SET_NO":999,"REV_AT_EPOCH":30384,"BSTAR":-1.3494e-5,"MEAN_MOTION_DOT":-4.82e-6,"MEAN_MOTION_DDOT":0},{"OBJECT_NAME":"STARLINK-1168","OBJECT_ID":"2020-006AE","EPOCH":"2025-08-01T02:57:59.187744","MEAN_MOTION":15.06394648,"ECCENTRICITY":0.0001322,"INCLINATION":53.0543,"RA_OF_ASC_NODE":176.7791,"ARG_OF_PERICENTER":85.1417,"MEAN_ANOMALY":274.9723,"EPHEMERIS_TYPE":0,"CLASSIFICATION_TYPE":"U","NORAD_CAT_ID":45072,"ELEMENT_SET_NO":999,"REV_AT_EPOCH":30384,"BSTAR":-5.6757e-5,"MEAN_MOTION_DOT":-1.127e-5,"MEAN_MOTION_DDOT":0},{"OBJECT_NAME":"STARLINK-1172","OBJECT_ID":"2020-006AG","EPOCH":"2025-07-31T22:27:17.504928","MEAN_MOTION":15.06397595,"ECCENTRICITY":0.0001574,"INCLINATION":53.0544,"RA_OF_ASC_NODE":177.626,"ARG_OF_PERICENTER":90.0564,"MEAN_ANOMALY":270.0605,"EPHEMERIS_TYPE":0,"CLASSIFICATION_TYPE":"U","NORAD_CAT_ID":45074,"ELEMENT_SET_NO":999,"REV_AT_EPOCH":30346,"BSTAR":-9.3628e-6,"MEAN_MOTION_DOT":-4.21e-6,"MEAN_MOTION_DDOT":0},{"OBJECT_NAME":"STARLINK-1153","OBJECT_ID":"2020-006AN","EPOCH":"2025-07-31T15:33:17.294976","MEAN_MOTION":15.06388009,"ECCENTRICITY":0.0001396,"INCLINATION":53.0536,"RA_OF_ASC_NODE":178.9157,"ARG_OF_PERICENTER":89.7573,"MEAN_ANOMALY":270.3576,"EPHEMERIS_TYPE":0,"CLASSIFICATION_TYPE":"U","NORAD_CAT_ID":45080,"ELEMENT_SET_NO":999,"REV_AT_EPOCH":30342,"BSTAR":0.00016573,"MEAN_MOTION_DOT":2.187e-5,"MEAN_MOTION_DDOT":0},{"OBJECT_NAME":"STARLINK-1151","OBJECT_ID":"2020-006AP","EPOCH":"2025-07-31T21:34:13.767744","MEAN_MOTION":15.06389641,"ECCENTRICITY":0.0001366,"INCLINATION":53.0545,"RA_OF_ASC_NODE":177.8629,"ARG_OF_PERICENTER":82.3828,"MEAN_ANOMALY":277.7316,"EPHEMERIS_TYPE":0,"CLASSIFICATION_TYPE":"U","NORAD_CAT_ID":45081,"ELEMENT_SET_NO":999,"REV_AT_EPOCH":30381,"BSTAR":-1.0545e-5,"MEAN_MOTION_DOT":-4.38e-6,"MEAN_MOTION_DDOT":0},{"OBJECT_NAME":"STARLINK-1190","OBJECT_ID":"2020-006AR","EPOCH":"2025-08-01T03:35:29.071392","MEAN_MOTION":15.6439942,"ECCENTRICITY":0.0001424,"INCLINATION":53.0527,"RA_OF_ASC_NODE":171.6019,"ARG_OF_PERICENTER":137.1813,"MEAN_ANOMALY":222.9312,"EPHEMERIS_TYPE":0,"CLASSIFICATION_TYPE":"U","NORAD_CAT_ID":45083,"ELEMENT_SET_NO":999,"REV_AT_EPOCH":30391,"BSTAR":0.00077802,"MEAN_MOTION_DOT":0.0007617,"MEAN_MOTION_DDOT":0},{"OBJECT_NAME":"STARLINK-1173","OBJECT_ID":"2020-006AS","EPOCH":"2025-08-01T06:00:02.000160","MEAN_MOTION":15.64335973,"ECCENTRICITY":0.0005405,"INCLINATION":53.0522,"RA_OF_ASC_NODE":136.6305,"ARG_OF_PERICENTER":102.2906,"MEAN_ANOMALY":270.8666,"EPHEMERIS_TYPE":0,"CLASSIFICATION_TYPE":"U","NORAD_CAT_ID":45084,"ELEMENT_SET_NO":999,"REV_AT_EPOCH":30452,"BSTAR":0.0017443,"MEAN_MOTION_DOT":0.00173163,"MEAN_MOTION_DDOT":0},{"OBJECT_NAME":"STARLINK-1179","OBJECT_ID":"2020-006AT","EPOCH":"2025-08-01T04:14:58.465248","MEAN_MOTION":15.71584105,"ECCENTRICITY":0.0007422,"INCLINATION":53.0469,"RA_OF_ASC_NODE":131.1731,"ARG_OF_PERICENTER":67.0618,"MEAN_ANOMALY":293.1182,"EPHEMERIS_TYPE":0,"CLASSIFICATION_TYPE":"U","NORAD_CAT_ID":45085,"ELEMENT_SET_NO":999,"REV_AT_EPOCH":30448,"BSTAR":0.00094073,"MEAN_MOTION_DOT":0.00124693,"MEAN_MOTION_DDOT":0}]
