STARLINK-1134           
1 45048U 20006E   25213.15659456  .00047205  00000+0  21636-2 0  9990
2 45048  53.0530 185.9085 0002874 242.6335 117.4367 15.20022348303711
STARLINK-1156           
1 45054U 20006L   25212.66470229  .00000088  00000+0  24797-4 0  9992
2 45054  53.0542 198.8396 0001187  75.7818 284.3303 15.06398546303484
STARLINK-1159           
1 45057U 20006P   25213.21022432 -.00000242  00000+0  26471-5 0  9991
2 45057  53.0540 196.3887 0001105  78.1368 281.9744 15.06387812303576
STARLINK-1166           
1 45060U 20006S   25213.22128120 -.00000648  00000+0 -24608-4 0  9997
2 45060  53.0538 196.3413 0001278  86.2939 273.8197 15.06389855303578
STARLINK-1169           
1 45061U 20006T   25213.36134147 -.00000624  00000+0 -23013-4 0  9992
2 45061  53.0538 195.7131 0001171  76.2503 283.8616 15.06391309303593
STARLINK-1171           
1 45062U 20006U   25213.21391124 -.00000580  00000+0 -20076-4 0  9994
2 45062  53.0533 196.3708 0001205  84.1641 275.9485 15.06388522303572
STARLINK-1133           
1 45064U 20006W   25213.16047395  .00000328  00000+0  40896-4 0  9998
2 45064  53.0539 176.6090 0001267  91.3141 268.7994 15.06403011303855
STARLINK-1150           
1 45067U 20006Z   25213.25002315  .00187941  00000+0  13626-2 0  9990
2 45067  53.0479 149.9250 0010064  48.5238 103.3622 15.72280154304226
STARLINK-1167           
1 45071U 20006AD  25213.18625901 -.00000482  00000+0 -13494-4 0  9990
2 45071  53.0538 176.4992 0001282  87.4472 272.6664 15.06396749303847
STARLINK-1168           
1 45072U 20006AE  25213.12360171 -.00001127  00000+0 -56757-4 0  9996
2 45072  53.0543 176.7791 0001322  85.1417 274.9723 15.06394648303840
STARLINK-1172           
1 45074U 20006AG  25212.93561927 -.00000421  00000+0 -93628-5 0  9993
2 45074  53.0544 177.6260 0001574  90.0564 270.0605 15.06397595303469
STARLINK-1153           
1 45080U 20006AN  25212.64811684  .00002187  00000+0  16573-3 0  9997
2 45080  53.0536 178.9157 0001396  89.7573 270.3576 15.06388009303429
STARLINK-1151           
1 45081U 20006AP  25212.89877046 -.00000438  00000+0 -10545-4 0  9992
2 45081  53.0545 177.8629 0001366  82.3828 277.7316 15.06389641303810
STARLINK-1190           
1 45083U 20006AR  25213.14964203  .00076170  00000+0  77802-3 0  9997
2 45083  53.0527 171.6019 0001424 137.1813 222.9312 15.64399420303914
STARLINK-1173           
1 45084U 20006AS  25213.25002315  .00173163  00000+0  17443-2 0  9991
2 45084  53.0522 136.6305 0005405 102.2906 270.8666 15.64335973304523
STARLINK-1179           
1 45085U 20006AT  25213.17706557  .00124693  00000+0  94073-3 0  9991
2 45085  53.0469 131.1731 0007422  67.0618 293.1182 15.71584105304483
